OBJECT_NAME,OBJECT_ID,EPOCH,MEAN_MOTION,ECCENTRICITY,INCLINATION,RA_OF_ASC_NODE,ARG_OF_PERICENTER,MEAN_ANOMALY,EPHEMERIS_TYPE,CLASSIFICATION_TYPE,NORAD_CAT_ID,ELEMENT_SET_NO,REV_AT_EPOCH,BSTAR,MEAN_MOTION_DOT,MEAN_MOTION_DDOT
STARLINK-34102,2025-092C,2026-06-29T21:52:58.535904,15.27594305,.00019599,42.9966,259.1153,277.6674,82.3955,0,U,63806,999,6582,.56429371E-3,.15305E-3,0
STARLINK-34109,2025-092D,2026-07-01T00:00:00.998784,15.27578676,.0001664,43.0024,252.4070,268.5015,196.4577,0,U,63807,999,588,.45676E-3,.12328E-3,0
STARLINK-34091,2025-092E,2026-06-30T16:18:48.405888,15.27587628,.00025126,42.9999,254.5601,282.4576,77.5994,0,U,63808,999,6594,.54035277E-3,.14641E-3,0
STARLINK-34095,2025-092F,2026-06-30T13:41:57.122592,15.27586932,.00010549,42.9981,255.4664,279.2652,80.8081,0,U,63809,999,6587,.96882367E-3,.26499E-3,0
STARLINK-34127,2025-092G,2026-06-30T15:52:53.748480,15.27583976,.00022791,42.9998,254.4237,260.8863,99.1731,0,U,63810,999,6589,.40799806E-3,.10983E-3,0
STARLINK-34101,2025-092J,2026-06-29T22:07:34.271616,15.27587282,.00017077,42.9999,258.3252,270.3662,89.6994,0,U,63812,999,6572,.52004341E-3,.14079E-3,0
STARLINK-34065,2025-092K,2026-06-30T15:29:33.527616,15.27549973,.00015013,43.0032,250.7881,277.3023,82.7658,0,U,63813,999,6587,.68257826E-3,.18551E-3,0
STARLINK-34057,2025-092L,2026-06-29T22:18:39.427200,15.27606345,.00015328,43.0016,258.3818,273.6465,86.4212,0,U,63814,999,6578,.88535418E-3,.24201E-3,0
STARLINK-34060,2025-092M,2026-06-30T21:52:52.474080,15.27595335,.0001904,43.0013,252.8564,270.4223,89.6410,0,U,63815,999,6587,.11665E-2,.31992E-3,0
STARLINK-34048,2025-092N,2026-06-30T05:41:55.183200,15.27586384,.0000938,42.9983,257.2584,333.6906,26.3898,0,U,63816,999,6587,.48373215E-3,.13075E-3,0
STARLINK-33959,2025-092P,2026-06-29T22:03:53.865216,15.27586937,.00012911,42.9997,258.3101,274.3597,85.7107,0,U,63817,999,6583,.63126407E-3,.17153E-3,0
STARLINK-34058,2025-092Q,2026-06-30T13:54:42.041664,15.27593799,.00020776,43.0011,254.6644,36.1320,323.9672,0,U,63818,999,6593,.5553214E-3,.15057E-3,0
STARLINK-34055,2025-092R,2026-07-01T00:00:00.998784,15.35063932,.0007278,42.9996,251.5922,29.9051,43.5838,0,U,63819,999,583,.30387E-2,.106936E-2,0
STARLINK-33794,2025-092S,2026-06-29T15:19:41.388672,15.27591015,.00043576,42.9993,260.5030,248.2685,111.7703,0,U,63820,999,6573,.79435664E-3,.21673E-3,0
STARLINK-34047,2025-092T,2026-06-30T14:46:29.946432,15.27580132,.00016561,43.0001,254.9336,267.9618,92.1044,0,U,63821,999,6593,.28103003E-3,.7479E-4,0
STARLINK-34094,2025-092U,2026-06-30T15:02:00.451104,15.27564714,.00012362,42.9993,251.5257,278.1624,81.9088,0,U,63822,999,6597,.36908702E-3,.9903E-4,0
STARLINK-34043,2025-092V,2026-06-30T05:40:32.742048,15.27581149,.00008196,42.9992,252.8940,313.0770,47.0013,0,U,63823,999,6587,.48974282E-3,.13239E-3,0
STARLINK-34025,2025-092W,2026-06-29T22:11:16.663488,15.27591482,.00009224,43.0027,258.3427,290.2348,69.8404,0,U,63824,999,6572,.52344782E-3,.14175E-3,0
STARLINK-33874,2025-092X,2026-06-30T13:04:56.385120,15.27592659,.00018032,42.9990,255.2661,266.8751,93.1894,0,U,63825,999,6592,.73089925E-3,.19913E-3,0
STARLINK-33781,2025-092Y,2026-06-30T05:40:04.128096,15.27581881,.00003226,42.9970,257.2452,12.4259,347.6600,0,U,63826,999,6587,.50265671E-3,.13596E-3,0
STARLINK-33891,2025-092Z,2026-06-30T15:14:15.137952,15.27576858,.00013044,43.0003,255.0735,277.0546,83.0157,0,U,63827,999,6582,.18399576E-3,.4804E-4,0
STARLINK-33903,2025-092AA,2026-06-30T14:31:41.764800,15.27584412,.00017762,43.0001,254.8533,262.6205,97.4445,0,U,63828,999,6593,.29276319E-3,.7804E-4,0
STARLINK-33889,2025-092AB,2026-06-30T22:02:07.030752,15.27584971,.0001857,43.0059,252.8998,259.3490,100.7153,0,U,63829,999,6587,.5006E-3,.13541E-3,0
STARLINK-33984,2025-092AC,2026-06-30T22:13:14.803392,15.27601285,.000247,43.0007,252.9551,82.1927,277.9205,0,U,63830,999,6593,.98259E-3,.26894E-3,0
STARLINK-33940,2025-092AD,2026-06-30T13:03:05.401728,15.27597947,.00021985,42.9982,255.2599,254.3570,105.7040,0,U,63831,999,6592,.82998478E-3,.22661E-3,0
STARLINK-33978,2025-092AE,2026-06-30T22:05:49.370784,15.27594940,.0002817,43.0031,252.9250,272.4172,87.6357,0,U,63832,999,6598,.94215E-3,.25768E-3,0
STARLINK-34018,2025-093A,2026-07-01T05:16:23.517696,15.27590963,.0001629,43.0021,156.8774,271.3176,88.7489,0,U,63836,999,6533,.83034E-3,.22665E-3,0
STARLINK-34053,2025-093B,2026-07-01T05:12:41.683968,15.27598382,.0001354,42.9989,156.8544,254.0767,105.9936,0,U,63837,999,6527,.12599E-2,.34589E-3,0
STARLINK-34042,2025-093C,2026-06-30T00:06:45.496800,15.27597859,.00012684,42.9985,159.7657,219.1736,140.9024,0,U,63838,999,6519,.83808305E-3,.22884E-3,0
STARLINK-34040,2025-093D,2026-07-01T04:54:10.656000,15.27598608,.0001755,43.0001,156.7590,273.2144,86.8507,0,U,63839,999,6533,.12113E-3,.3074E-4,0
STARLINK-33990,2025-093E,2026-07-01T04:57:53.070336,15.27594418,.0001621,43.0019,156.7672,277.4139,82.6528,0,U,63840,999,6511,.10128E-2,.27726E-3,0
STARLINK-34056,2025-093F,2026-07-01T05:25:38.585856,15.27594057,.0002248,43.0005,156.9215,277.0096,83.0500,0,U,63841,999,6511,.93157E-3,.25473E-3,0
STARLINK-34026,2025-093G,2026-07-01T05:27:29.425824,15.27595917,.0001328,42.9987,156.9291,273.3999,86.6700,0,U,63842,999,6511,.1118E-2,.30645E-3,0
STARLINK-33777,2025-093H,2026-06-29T22:44:51.434592,15.27612159,.00008577,42.9981,163.6648,289.6968,70.3791,0,U,63843,999,6514,.83135766E-3,.22708E-3,0
STARLINK-34041,2025-093J,2026-06-30T23:18:16.166016,15.27608720,.0003264,42.9999,158.4439,288.8504,71.1994,0,U,63844,999,6529,.13464E-2,.37011E-3,0
STARLINK-34011,2025-093K,2026-06-30T23:29:22.189920,15.27610411,.0002657,43.0035,158.5116,182.7360,177.3478,0,U,63845,999,6507,.13971E-2,.38422E-3,0
STARLINK-34044,2025-093L,2026-06-30T23:53:11.951808,15.27611683,.000163,43.0002,157.7674,261.3825,98.6842,0,U,63846,999,6508,.87119E-3,.23812E-3,0
STARLINK-34037,2025-093M,2026-07-01T04:50:28.669344,15.27599931,.0001789,43.0002,156.7387,270.3311,89.7336,0,U,63847,999,6533,.18175E-3,.4745E-4,0
STARLINK-34010,2025-093N,2026-07-01T04:59:44.446848,15.27594838,.0001514,42.9972,156.7800,273.7170,86.3508,0,U,63848,999,6511,.52179E-3,.1413E-3,0
STARLINK-34009,2025-093P,2026-07-01T05:28:10.534080,15.27632048,.00018,43.0016,153.4699,123.9375,236.1648,0,U,63849,999,6537,.1883E-2,.52003E-3,0
STARLINK-33958,2025-093Q,2026-06-30T21:45:57.633120,15.27608321,.0002258,43.0051,158.8226,228.3530,131.7129,0,U,63850,999,6512,.13686E-2,.37623E-3,0
STARLINK-33776,2025-093R,2026-07-01T04:41:13.875936,15.27602047,.0002112,43.0031,156.6875,287.6300,72.4321,0,U,63851,999,6532,.99476E-3,.27232E-3,0
STARLINK-34032,2025-093T,2026-07-01T04:44:55.679424,15.27600911,.0001609,43.0006,156.6876,274.1603,85.9065,0,U,63853,999,6533,.10456E-2,.2864E-3,0
STARLINK-34015,2025-093U,2026-06-30T23:23:48.527808,15.27589269,.0007871,43.0010,158.4542,133.2546,226.8964,0,U,63854,999,6513,.43346E-3,.11695E-3,0
STARLINK-33969,2025-093V,2026-07-01T04:56:01.927968,15.27584863,.0002536,43.0029,156.7459,277.6283,82.4281,0,U,63855,999,6511,.10957E-2,.30019E-3,0
STARLINK-34002,2025-093W,2026-07-01T05:08:59.205696,15.27621315,.0002247,43.0023,156.8137,275.3338,84.7257,0,U,63856,999,6511,.897E-3,.24535E-3,0
STARLINK-33999,2025-093X,2026-07-01T04:48:37.494144,15.27608404,.0001006,42.9986,156.6888,266.4628,93.6108,0,U,63857,999,6533,.83568E-3,.22825E-3,0
STARLINK-33976,2025-093Y,2026-07-01T05:01:34.870368,15.27608765,.000072,42.9974,156.7573,241.0639,119.0140,0,U,63858,999,6517,.11375E-2,.31199E-3,0
STARLINK-33821,2025-093Z,2026-07-01T05:21:55.705824,15.27600587,.000194,43.0012,156.8504,274.9959,85.0671,0,U,63859,999,6531,.70422E-3,.19179E-3,0
STARLINK-33888,2025-093AA,2026-07-01T05:10:49.986048,15.27600936,.0001416,43.0006,156.8199,267.7823,92.2867,0,U,63860,999,6533,.93062E-3,.25451E-3,0
STARLINK-33896,2025-093AB,2026-07-01T05:18:13.796064,15.27592467,.0000971,42.9975,156.8598,236.2735,123.8024,0,U,63861,999,6511,.14219E-2,.39089E-3,0
STARLINK-33878,2025-093AC,2026-07-01T05:20:04.693920,15.27602241,.0001744,43.0013,156.8387,274.7247,85.3406,0,U,63862,999,6532,.75266E-3,.20521E-3,0
STARLINK-33954,2025-093AD,2026-07-01T05:31:12.362880,15.27557968,.0001865,43.0000,156.9219,284.7866,75.2779,0,U,63863,999,6511,.32046E-3,.8561E-4,0
STARLINK-33863,2025-094A,2026-07-01T02:01:16.939776,14.98337859,.0003183,70.0024,308.7524,268.4899,91.5895,0,U,63864,999,6418,.31406E-3,.3657E-4,0
STARLINK-33897,2025-094B,2026-07-01T01:19:12.172800,14.98338008,.0003346,70.0025,308.6470,270.4170,89.6605,0,U,63865,999,6440,.25254E-3,.2922E-4,0
STARLINK-34022,2025-094C,2026-06-30T11:12:16.010208,14.98344037,.00027825,70.0025,310.2011,270.5091,89.5750,0,U,63866,999,6409,.15314127E-3,.1735E-4,0
STARLINK-33979,2025-094D,2026-07-01T01:25:12.769248,14.98337055,.0003152,70.0027,308.6639,269.4226,90.6572,0,U,63867,999,6418,.19797E-3,.227E-4,0
STARLINK-34007,2025-094E,2026-07-01T01:55:30.194976,14.98088483,.0002891,70.0021,308.7355,255.2563,104.8276,0,U,63868,999,6418,-.51802E-2,-.60985E-3,0
STARLINK-34006,2025-094F,2026-07-01T02:31:31.876320,14.98342896,.0002938,70.0024,308.4200,271.1623,88.9200,0,U,63869,999,6419,.38674E-3,.4526E-4,0
STARLINK-33986,2025-094G,2026-07-01T00:00:00.998784,14.98356206,.0003453,70.0022,308.7309,271.4389,196.2210,0,U,63870,999,548,-.38955E-2,-.463E-3,0
STARLINK-34013,2025-094H,2026-07-01T02:25:17.100768,14.98339051,.0003259,70.0019,308.4085,267.1416,92.9370,0,U,63871,999,6419,.28687E-3,.3332E-4,0
STARLINK-34059,2025-094J,2026-07-01T01:49:15.543840,14.98340049,.0003437,70.0020,308.7222,268.2963,91.7803,0,U,63872,999,6418,.37241E-3,.4355E-4,0
STARLINK-33987,2025-094K,2026-06-30T10:35:57.608736,14.98335677,.00030835,70.0030,310.1179,269.0598,91.0208,0,U,63873,999,6409,.1450688E-3,.1639E-4,0
STARLINK-34052,2025-094L,2026-07-01T01:43:15.002688,14.98336499,.0002998,70.0025,308.7044,268.0728,92.0088,0,U,63874,999,6418,.25209E-3,.2917E-4,0
